CCSDS_OMM_VERS = 2.0
CREATION_DATE  = 
ORIGINATOR     = 

OBJECT_NAME    = SL-16 R/B
OBJECT_ID      = 1998-045B
CENTER_NAME    = EARTH
REF_FRAME      = TEME
TIME_SYSTEM    = UTC
MEAN_ELEMENT_THEORY = SGP/SGP4

EPOCH          = 2026-03-14T17:30:19.493856
MEAN_MOTION    = 14.16192942
ECCENTRICITY   = .00070622
INCLINATION    = 71.0120
RA_OF_ASC_NODE = 170.9764
ARG_OF_PERICENTER = 0.3412
MEAN_ANOMALY   = 359.7715

EPHEMERIS_TYPE = 0
CLASSIFICATION_TYPE = U
NORAD_CAT_ID   = 25407
ELEMENT_SET_NO = 999
REV_AT_EPOCH   = 42781
BSTAR          = .17702279E-3
MEAN_MOTION_DOT = .303E-5
MEAN_MOTION_DDOT = 0

CCSDS_OMM_VERS = 2.0
CREATION_DATE  = 
ORIGINATOR     = 

OBJECT_NAME    = ISS (ZARYA)
OBJECT_ID      = 1998-067A
CENTER_NAME    = EARTH
REF_FRAME      = TEME
TIME_SYSTEM    = UTC
MEAN_ELEMENT_THEORY = SGP/SGP4

EPOCH          = 2026-03-14T19:19:28.771104
MEAN_MOTION    = 15.48281436
ECCENTRICITY   = .00063712
INCLINATION    = 51.6329
RA_OF_ASC_NODE = 47.0659
ARG_OF_PERICENTER = 190.9724
MEAN_ANOMALY   = 169.1126

EPHEMERIS_TYPE = 0
CLASSIFICATION_TYPE = U
NORAD_CAT_ID   = 25544
ELEMENT_SET_NO = 999
REV_AT_EPOCH   = 55712
BSTAR          = .20105253E-3
MEAN_MOTION_DOT = .10373E-3
MEAN_MOTION_DDOT = 0

CCSDS_OMM_VERS = 2.0
CREATION_DATE  = 
ORIGINATOR     = 

OBJECT_NAME    = CZ-4B R/B
OBJECT_ID      = 1999-025C
CENTER_NAME    = EARTH
REF_FRAME      = TEME
TIME_SYSTEM    = UTC
MEAN_ELEMENT_THEORY = SGP/SGP4

EPOCH          = 2026-03-14T21:47:32.313696
MEAN_MOTION    = 14.18266455
ECCENTRICITY   = .00364707
INCLINATION    = 98.6615
RA_OF_ASC_NODE = 118.0657
ARG_OF_PERICENTER = 331.4561
MEAN_ANOMALY   = 201.8752

EPHEMERIS_TYPE = 0
CLASSIFICATION_TYPE = U
NORAD_CAT_ID   = 25732
ELEMENT_SET_NO = 999
REV_AT_EPOCH   = 38890
BSTAR          = .56476326E-4
MEAN_MOTION_DOT = .74E-6
MEAN_MOTION_DDOT = 0

CCSDS_OMM_VERS = 2.0
CREATION_DATE  = 
ORIGINATOR     = 

OBJECT_NAME    = OKEAN-O
OBJECT_ID      = 1999-039A
CENTER_NAME    = EARTH
REF_FRAME      = TEME
TIME_SYSTEM    = UTC
MEAN_ELEMENT_THEORY = SGP/SGP4

EPOCH          = 2026-03-14T17:18:54.269280
MEAN_MOTION    = 14.80345028
ECCENTRICITY   = .00010983
INCLINATION    = 97.9431
RA_OF_ASC_NODE = 133.5615
ARG_OF_PERICENTER = 71.9427
MEAN_ANOMALY   = 288.1905

EPHEMERIS_TYPE = 0
CLASSIFICATION_TYPE = U
NORAD_CAT_ID   = 25860
ELEMENT_SET_NO = 999
REV_AT_EPOCH   = 43513
BSTAR          = .11749806E-3
MEAN_MOTION_DOT = .844E-5
MEAN_MOTION_DDOT = 0

CCSDS_OMM_VERS = 2.0
CREATION_DATE  = 
ORIGINATOR     = 

OBJECT_NAME    = SL-16 R/B
OBJECT_ID      = 1999-039B
CENTER_NAME    = EARTH
REF_FRAME      = TEME
TIME_SYSTEM    = UTC
MEAN_ELEMENT_THEORY = SGP/SGP4

EPOCH          = 2026-03-14T16:43:05.250720
MEAN_MOTION    = 14.81739520
ECCENTRICITY   = .00136456
INCLINATION    = 97.9955
RA_OF_ASC_NODE = 132.7857
ARG_OF_PERICENTER = 238.2728
MEAN_ANOMALY   = 121.7156

EPHEMERIS_TYPE = 0
CLASSIFICATION_TYPE = U
NORAD_CAT_ID   = 25861
ELEMENT_SET_NO = 999
REV_AT_EPOCH   = 43760
BSTAR          = .92529965E-4
MEAN_MOTION_DOT = .676E-5
MEAN_MOTION_DDOT = 0

CCSDS_OMM_VERS = 2.0
CREATION_DATE  = 
ORIGINATOR     = 

OBJECT_NAME    = DELTA 2 R/B
OBJECT_ID      = 1999-041E
CENTER_NAME    = EARTH
REF_FRAME      = TEME
TIME_SYSTEM    = UTC
MEAN_ELEMENT_THEORY = SGP/SGP4

EPOCH          = 2026-03-14T14:37:49.152288
MEAN_MOTION    = 14.11854461
ECCENTRICITY   = .05024924
INCLINATION    = 51.7619
RA_OF_ASC_NODE = 281.6284
ARG_OF_PERICENTER = 2.9438
MEAN_ANOMALY   = 357.4267

EPHEMERIS_TYPE = 0
CLASSIFICATION_TYPE = U
NORAD_CAT_ID   = 25876
ELEMENT_SET_NO = 999
REV_AT_EPOCH   = 36372
BSTAR          = .26804184E-3
MEAN_MOTION_DOT = .1428E-4
MEAN_MOTION_DDOT = 0

CCSDS_OMM_VERS = 2.0
CREATION_DATE  = 
ORIGINATOR     = 

OBJECT_NAME    = HELIOS 1B
OBJECT_ID      = 1999-064A
CENTER_NAME    = EARTH
REF_FRAME      = TEME
TIME_SYSTEM    = UTC
MEAN_ELEMENT_THEORY = SGP/SGP4

EPOCH          = 2026-03-14T23:02:23.836704
MEAN_MOTION    = 14.87723281
ECCENTRICITY   = .00023635
INCLINATION    = 98.1689
RA_OF_ASC_NODE = 336.3579
ARG_OF_PERICENTER = 68.2540
MEAN_ANOMALY   = 291.8927

EPHEMERIS_TYPE = 0
CLASSIFICATION_TYPE = U
NORAD_CAT_ID   = 25977
ELEMENT_SET_NO = 999
REV_AT_EPOCH   = 68604
BSTAR          = .22990385E-3
MEAN_MOTION_DOT = .2037E-4
MEAN_MOTION_DDOT = 0

CCSDS_OMM_VERS = 2.0
CREATION_DATE  = 
ORIGINATOR     = 

OBJECT_NAME    = TERRA
OBJECT_ID      = 1999-068A
CENTER_NAME    = EARTH
REF_FRAME      = TEME
TIME_SYSTEM    = UTC
MEAN_ELEMENT_THEORY = SGP/SGP4

EPOCH          = 2026-03-14T22:02:57.039072
MEAN_MOTION    = 14.61020961
ECCENTRICITY   = .0003016
INCLINATION    = 97.9582
RA_OF_ASC_NODE = 127.1534
ARG_OF_PERICENTER = 139.8124
MEAN_ANOMALY   = 273.4935

EPHEMERIS_TYPE = 0
CLASSIFICATION_TYPE = U
NORAD_CAT_ID   = 25994
ELEMENT_SET_NO = 999
REV_AT_EPOCH   = 39584
BSTAR          = .11258188E-3
MEAN_MOTION_DOT = .508E-5
MEAN_MOTION_DDOT = 0

CCSDS_OMM_VERS = 2.0
CREATION_DATE  = 
ORIGINATOR     = 

OBJECT_NAME    = SL-16 R/B
OBJECT_ID      = 2000-006B
CENTER_NAME    = EARTH
REF_FRAME      = TEME
TIME_SYSTEM    = UTC
MEAN_ELEMENT_THEORY = SGP/SGP4

EPOCH          = 2026-03-14T11:07:26.850144
MEAN_MOTION    = 14.15824818
ECCENTRICITY   = .0016486
INCLINATION    = 71.0004
RA_OF_ASC_NODE = 87.7988
ARG_OF_PERICENTER = 183.0564
MEAN_ANOMALY   = 177.0461

EPHEMERIS_TYPE = 0
CLASSIFICATION_TYPE = U
NORAD_CAT_ID   = 26070
ELEMENT_SET_NO = 999
REV_AT_EPOCH   = 34923
BSTAR          = -.75489621E-4
MEAN_MOTION_DOT = -.196E-5
MEAN_MOTION_DDOT = 0

CCSDS_OMM_VERS = 2.0
CREATION_DATE  = 
ORIGINATOR     = 

OBJECT_NAME    = TITAN 4B R/B
OBJECT_ID      = 2000-047B
CENTER_NAME    = EARTH
REF_FRAME      = TEME
TIME_SYSTEM    = UTC
MEAN_ELEMENT_THEORY = SGP/SGP4

EPOCH          = 2026-03-14T22:20:23.623008
MEAN_MOTION    = 15.09620681
ECCENTRICITY   = .00387121
INCLINATION    = 67.9904
RA_OF_ASC_NODE = 25.7715
ARG_OF_PERICENTER = 29.1879
MEAN_ANOMALY   = 331.1422

EPHEMERIS_TYPE = 0
CLASSIFICATION_TYPE = U
NORAD_CAT_ID   = 26474
ELEMENT_SET_NO = 999
REV_AT_EPOCH   = 39370
BSTAR          = .34558475E-3
MEAN_MOTION_DOT = .5536E-4
MEAN_MOTION_DDOT = 0

CCSDS_OMM_VERS = 2.0
CREATION_DATE  = 
ORIGINATOR     = 

OBJECT_NAME    = ENVISAT
OBJECT_ID      = 2002-009A
CENTER_NAME    = EARTH
REF_FRAME      = TEME
TIME_SYSTEM    = UTC
MEAN_ELEMENT_THEORY = SGP/SGP4

EPOCH          = 2026-03-14T21:32:36.579840
MEAN_MOTION    = 14.39039034
ECCENTRICITY   = .00013
INCLINATION    = 98.3734
RA_OF_ASC_NODE = 27.3711
ARG_OF_PERICENTER = 82.8296
MEAN_ANOMALY   = 344.8385

EPHEMERIS_TYPE = 0
CLASSIFICATION_TYPE = U
NORAD_CAT_ID   = 27386
ELEMENT_SET_NO = 999
REV_AT_EPOCH   = 25992
BSTAR          = .57296367E-4
MEAN_MOTION_DOT = .134E-5
MEAN_MOTION_DDOT = 0

CCSDS_OMM_VERS = 2.0
CREATION_DATE  = 
ORIGINATOR     = 

OBJECT_NAME    = IDEFIX & ARIANE 42P R/B
OBJECT_ID      = 2002-021B
CENTER_NAME    = EARTH
REF_FRAME      = TEME
TIME_SYSTEM    = UTC
MEAN_ELEMENT_THEORY = SGP/SGP4

EPOCH          = 2026-03-14T19:26:04.442496
MEAN_MOTION    = 14.31030190
ECCENTRICITY   = .00118737
INCLINATION    = 98.5873
RA_OF_ASC_NODE = 12.3550
ARG_OF_PERICENTER = 166.9758
MEAN_ANOMALY   = 193.1733

EPHEMERIS_TYPE = 0
CLASSIFICATION_TYPE = U
NORAD_CAT_ID   = 27422
ELEMENT_SET_NO = 999
REV_AT_EPOCH   = 24475
BSTAR          = .13832213E-3
MEAN_MOTION_DOT = .321E-5
MEAN_MOTION_DDOT = 0

